1 54227U 22147A   22365.53173741  .00001895  00000-0  18791-3 0  9997
2 54227  97.6526   6.6807 0015019 114.4656 245.8132 14.92858688  8470
1 54227U 22147A   22365.79984622  .00001950  00000-0  19321-3 0  9995
2 54227  97.6525   6.9414 0015026 113.6713 246.6085 14.92859632  8510
1 54227U 22147A   23001.47011714  .00002025  00000-0  20048-3 0  9993
2 54227  97.6524   7.5931 0015063 111.7018 248.5807 14.92862335  8616
1 54227U 22147A   23001.73822521  .00002069  00000-0  20465-3 0  9999
2 54227  97.6523   7.8538 0015078 110.9026 249.3809 14.92863396  8650
1 54227U 22147A   23002.27444066  .00002187  00000-0  21602-3 0  9998
2 54227  97.6523   8.3752 0015111 109.3047 250.9808 14.92865903  8739
1 54227U 22147A   23002.54254824  .00002004  00000-0  19838-3 0  9995
2 54227  97.6522   8.6359 0015131 108.5015 251.7851 14.92866397  8771
1 54227U 22147A   23002.74362870  .00002033  00000-0  20119-3 0  9994
2 54227  97.6522   8.8314 0015144 107.9033 252.3839 14.92867226  8800
1 54227U 22147A   23003.27984262  .00002346  00000-0  23129-3 0  9999
2 54227  97.6521   9.3528 0015181 106.3136 253.9755 14.92870393  8881
1 54227U 22147A   23003.48092272  .00002203  00000-0  21754-3 0  9997
2 54227  97.6521   9.5483 0015199 105.7227 254.5670 14.92870780  8913
1 54227U 22147A   23004.41929420  .00002608  00000-0  25654-3 0  9997
2 54227  97.6521  10.4607 0015262 102.8971 257.3955 14.92876034  9058
1 54227U 22147A   23004.41929420  .00002608  00000-0  25654-3 0  9997
2 54227  97.6521  10.4607 0015262 102.8971 257.3955 14.92876034  9058
1 54227U 22147A   23004.75442561  .00002882  00000-0  28286-3 0  9998
2 54227  97.6520  10.7865 0015283 101.8801 258.4134 14.92878622  9102
1 54227U 22147A   23005.29063595  .00002665  00000-0  26199-3 0  9994
2 54227  97.6521  11.3078 0015317 100.2520 260.0428 14.92880476  9188
1 54227U 22147A   23006.22899979  .00003036  00000-0  29759-3 0  9999
2 54227  97.6521  12.2202 0015353  97.3970 262.8995 14.92887140  9322
1 54227U 22147A   23006.96628316  .00002835  00000-0  27825-3 0  9993
2 54227  97.6521  12.9370 0015364  95.1528 265.1445 14.92891137  9431
1 54227U 22147A   23007.23438559  .00002988  00000-0  29296-3 0  9995
2 54227  97.6522  13.1977 0015371  94.3517 265.9459 14.92893306  9472
1 54227U 22147A   23007.43546218  .00002914  00000-0  28585-3 0  9998
2 54227  97.6522  13.3932 0015368  93.7419 266.5558 14.92894457  9504
1 54227U 22147A   23007.43546218  .00002914  00000-0  28585-3 0  9998
2 54227  97.6522  13.3932 0015368  93.7419 266.5558 14.92894457  9504
1 54227U 22147A   23008.37381752  .00002404  00000-0  23674-3 0  9990
2 54227  97.6524  14.3056 0015353  90.8808 269.4170 14.92898894  9644
1 54227U 22147A   23008.64191831  .00002422  00000-0  23847-3 0  9999
2 54227  97.6524  14.5663 0015346  90.0579 270.2399 14.92900631  9689
1 54227U 22147A   23008.64191831  .00002422  00000-0  23847-3 0  9999
2 54227  97.6524  14.5663 0015346  90.0579 270.2399 14.92900631  9689
1 54227U 22147A   23009.44621981  .00002117  00000-0  20906-3 0  9996
2 54227  97.6525  15.3484 0015311  87.5686 272.7286 14.92904349  9808
1 54227U 22147A   23010.25051928  .00002054  00000-0  20299-3 0  9990
2 54227  97.6526  16.1305 0015271  85.1251 275.1712 14.92908068  9923
1 54227U 22147A   23010.51861845  .00001916  00000-0  18970-3 0  9995
2 54227  97.6526  16.3912 0015259  84.3237 275.9722 14.92909086  9964
1 54227U 22147A   23010.71969292  .00001887  00000-0  18690-3 0  9998
2 54227  97.6527  16.5867 0015251  83.7219 276.5738 14.92909813  9996
1 54227U 22147A   23011.38993998  .00002296  00000-0  22626-3 0  9991
2 54227  97.6529  17.2385 0015212  81.8075 278.4870 14.92914088 10098
1 54227U 22147A   23011.52398905  .00002364  00000-0  23274-3 0  9990
2 54227  97.6529  17.3689 0015207  81.4014 278.8928 14.92915003 10118
1 54227U 22147A   23011.85911191  .00002477  00000-0  24367-3 0  9993
2 54227  97.6529  17.6948 0015191  80.3829 279.9106 14.92916772 10162
1 54227U 22147A   23012.93150203  .00002963  00000-0  29030-3 0  9994
2 54227  97.6530  18.7377 0015149  77.2181 283.0730 14.92923413 10328
1 54227U 22147A   23012.99852630  .00002951  00000-0  28916-3 0  9992
2 54227  97.6530  18.8029 0015148  77.0246 283.2664 14.92923720 10332
1 54227U 22147A   23013.53471922  .00003061  00000-0  29972-3 0  9990
2 54227  97.6531  19.3244 0015141  75.4788 284.8110 14.92927070 10418
1 54227U 22147A   23013.73579128  .00003134  00000-0  30670-3 0  9997
2 54227  97.6531  19.5199 0015139  74.8989 285.3904 14.92928379 10445
1 54227U 22147A   23014.27198187  .00003726  00000-0  36358-3 0  9995
2 54227  97.6531  20.0414 0015131  73.3558 286.9322 14.92933798 10521
1 54227U 22147A   23015.54542932  .00004110  00000-0  40036-3 0  9993
2 54227  97.6528  21.2798 0015118  69.6914 290.5928 14.92943715 10718
1 54227U 22147A   23015.61245260  .00004113  00000-0  40073-3 0  9999
2 54227  97.6528  21.3450 0015122  69.4928 290.7913 14.92944223 10724
1 54227U 22147A   23016.48375170  .00005105  00000-0  49582-3 0  9995
2 54227  97.6529  22.1924 0015142  67.0612 293.2204 14.92954626 10859
1 54227U 22147A   23016.88588845  .00005018  00000-0  48745-3 0  9997
2 54227  97.6531  22.5837 0015149  65.9198 294.3605 14.92957933 10910
1 54227U 22147A   23017.48909144  .00004643  00000-0  45142-3 0  9994
2 54227  97.6531  23.1704 0015152  64.1627 296.1154 14.92962800 11001
1 54227U 22147A   23018.56144640  .00004982  00000-0  48379-3 0  9997
2 54227  97.6529  24.2133 0015155  60.9438 299.3298 14.92973616 11161
1 54227U 22147A   23018.56144640  .00004982  00000-0  48379-3 0  9997
2 54227  97.6529  24.2133 0015155  60.9438 299.3298 14.92973616 11161
1 54227U 22147A   23018.96357764  .00004559  00000-0  44321-3 0  9997
2 54227  97.6528  24.6044 0015142  59.7371 300.5345 14.92976321 11224
1 54227U 22147A   23019.76783686  .00004917  00000-0  47744-3 0  9992
2 54227  97.6528  25.3865 0015115  57.2551 303.0124 14.92984629 11342
1 54227U 22147A   23020.57209221  .00004271  00000-0  41543-3 0  9995
2 54227  97.6527  26.1687 0015059  54.7594 305.5033 14.92990744 11462
1 54227U 22147A   23020.97421823  .00004169  00000-0  40562-3 0  9999
2 54227  97.6525  26.5597 0015023  53.5133 306.7468 14.92994312 11528
1 54227U 22147A   23022.44867398  .00003458  00000-0  33730-3 0  9993
2 54227  97.6525  27.9936 0014904  48.6901 311.5599 14.93004793 11744
1 54227U 22147A   23023.72205963  .00003386  00000-0  33034-3 0  9996
2 54227  97.6527  29.2319 0014762  44.6612 315.5794 14.93013304 11933
1 54227U 22147A   23024.99543822  .00003450  00000-0  33640-3 0  9990
2 54227  97.6531  30.4704 0014600  40.7444 319.4865 14.93021748 12126
1 54227U 22147A   23025.46457637  .00003085  00000-0  30135-3 0  9991
2 54227  97.6532  30.9267 0014551  39.3485 320.8790 14.93023648 12191
1 54227U 22147A   23025.53159596  .00003168  00000-0  30936-3 0  9993
2 54227  97.6532  30.9919 0014548  39.1377 321.0892 14.93024269 12207
1 54227U 22147A   23026.00073266  .00003489  00000-0  34008-3 0  9995
2 54227  97.6533  31.4483 0014507  37.7003 322.5231 14.93027989 12277
1 54227U 22147A   23026.46986888  .00003172  00000-0  30963-3 0  9993
2 54227  97.6534  31.9047 0014474  36.3053 323.9146 14.93030016 12345
1 54227U 22147A   23027.00602300  .00003291  00000-0  32105-3 0  9990
2 54227  97.6535  32.4262 0014446  34.6655 325.5503 14.93033699 12423
1 54227U 22147A   23027.54217634  .00003032  00000-0  29617-3 0  9998
2 54227  97.6535  32.9477 0014437  33.1184 327.0936 14.93036334 12502
1 54227U 22147A   23027.87727153  .00003114  00000-0  30405-3 0  9994
2 54227  97.6535  33.2738 0014415  32.0683 328.1411 14.93038497 12551
1 54227U 22147A   23028.01130940  .00003105  00000-0  30316-3 0  9994
2 54227  97.6533  33.4042 0014396  31.6574 328.5508 14.93039357 12570
1 54227U 22147A   23028.54746045  .00002843  00000-0  27808-3 0  9991
2 54227  97.6533  33.9257 0014358  30.0852 330.1189 14.93041805 12657
1 54227U 22147A   23029.28466642  .00002754  00000-0  26947-3 0  9999
2 54227  97.6535  34.6431 0014297  27.9294 332.2690 14.93045803 12762
1 54227U 22147A   23029.28466642  .00002754  00000-0  26947-3 0  9999
2 54227  97.6535  34.6431 0014297  27.9294 332.2690 14.93045803 12762
1 54227U 22147A   23030.42398070  .00002623  00000-0  25691-3 0  9996
2 54227  97.6537  35.7516 0014219  24.5554 335.6340 14.93051930 12932
1 54227U 22147A   23030.49099902  .00002600  00000-0  25469-3 0  9993
2 54227  97.6536  35.8168 0014214  24.3526 335.8362 14.93052260 12941
1 54227U 22147A   23030.89310871  .00002455  00000-0  24074-3 0  9997
2 54227  97.6535  36.2079 0014185  23.1393 337.0463 14.93054162 13009
1 54227U 22147A   23031.49627180  .00002643  00000-0  25878-3 0  9990
2 54227  97.6535  36.7947 0014142  21.2613 338.9191 14.93058120 13090
1 54227U 22147A   23031.49627180  .00002643  00000-0  25878-3 0  9990
2 54227  97.6535  36.7947 0014142  21.2613 338.9191 14.93058120 13090
1 54227U 22147A   23031.76434377  .00002650  00000-0  25946-3 0  9998
2 54227  97.6534  37.0555 0014118  20.4151 339.7630 14.93059669 13130
